STARLINK-30887          
1 58394U 23178W   26068.22234539  .00000558  00000+0  30951-4 0  9991
2 58394  53.1618   3.5105 0000924  88.3390 271.7716 15.30188910129790
COSMOS 2588             
1 64095U 25109A   26068.81179522  .00009169  00000+0  32611-3 0  9998
2 64095  72.9704  73.5401 0005019 308.6780  51.3966 15.29122656 44425
